NORAD_CAT_ID,OBJECT_NAME,OBJECT_TYPE,EPOCH,MEAN_MOTION,ECCENTRICITY,INCLINATION,RA_OF_ASC_NODE,ARG_OF_PERICENTER,MEAN_ANOMALY,BSTAR,MEAN_MOTION_DOT,MEAN_MOTION_DDOT,TLE_LINE0,TLE_LINE1,TLE_LINE2,SEMIMAJOR_AXIS,PERIOD,APOGEE,PERIGEE,DECAYED
52607.0,STARLINK-3947,PAYLOAD,2022-05-20 16:00:00,15.80110148,9.45e-05,53.2173,50.8524,94.221,304.4228,-0.0050811,-0.00875833,0.0,0 STARLINK-3947,1 52607U 22052K   22140.66667824 -.00875833  00000-0 -50811-2 0  9998,2 52607  53.2173  50.8524 0000945  94.2210 304.4228 15.80110148  1309,6708.266,91.133,330.765,329.497,0.0
52607.0,STARLINK-3947,PAYLOAD,2022-05-21 20:00:01,15.77908922,0.0001208,53.2177,45.03,90.7641,103.5348,-0.0056165,-0.00875618,0.0,0 STARLINK-3947,1 52607U 22052K   22141.83334491 -.00875618  00000-0 -56165-2 0  9998,2 52607  53.2177  45.0300 0001208  90.7641 103.5348 15.77908922  1484,6714.503000000002,91.26,337.1790000000001,335.557,0.0
52607.0,STARLINK-3947,PAYLOAD,2022-05-21 22:00:00,15.77752021,0.0001079,53.2176,44.6154,92.9955,214.9239,-0.0056645,-0.00876706,0.0,0 STARLINK-3947,1 52607U 22052K   22141.91667824 -.00876706  00000-0 -56645-2 0  9998,2 52607  53.2176  44.6154 0001079  92.9955 214.9239 15.77752021  1307,6714.948,91.269,337.538,336.089,0.0
52607.0,STARLINK-3947,PAYLOAD,2022-05-22 14:00:01,15.76492073,0.0001074,53.2172,41.2958,96.7547,38.4328,-0.0059742,-0.00874112,0.0,0 STARLINK-3947,1 52607U 22052K   22142.58334491 -.00874112  00000-0 -59742-2 0  9993,2 52607  53.2172  41.2958 0001074  96.7547  38.4328 15.76492073  1307,6718.526,91.342,341.112,339.6690000000001,0.0
52607.0,STARLINK-3947,PAYLOAD,2022-05-22 20:00:01,15.76021145,0.0001078,53.2174,40.0538,80.8392,33.7926,-0.0061123,-0.00875623,0.0,0 STARLINK-3947,1 52607U 22052K   22142.83334491 -.00875623  00000-0 -61123-2 0  9995,2 52607  53.2174  40.0538 0001078  80.8392  33.7926 15.76021145  1643,6719.864000000001,91.369,342.4530000000001,341.005,0.0
52607.0,STARLINK-3947,PAYLOAD,2022-05-22 22:00:01,15.75861511,0.0001194,53.2174,39.6403,85.5664,142.1855,-0.0061277,-0.00872055,0.0,0 STARLINK-3947,1 52607U 22052K   22142.91668981 -.00872055  00000-0 -61277-2 0  9994,2 52607  53.2174  39.6403 0001194  85.5664 142.1855 15.75861511  1308,6720.318,91.379,342.985,341.38,0.0
52607.0,STARLINK-3947,PAYLOAD,2022-05-23 14:00:01,15.7460358,0.0001011,53.2173,36.3298,112.4195,297.9969,-0.0064867999999999,-0.00873218,0.0,0 STARLINK-3947,1 52607U 22052K   22143.58334491 -.00873218  00000-0 -64868-2 0  9995,2 52607  53.2173  36.3298 0001011 112.4195 297.9969 15.74603580  1304,6723.896,91.452,346.441,345.082,0.0
52607.0,STARLINK-3947,PAYLOAD,2022-05-23 20:00:01,15.74134346,9.93e-05,53.2177,35.0916,100.9912,287.1677,-0.0066585,-0.00877661,0.0,0 STARLINK-3947,1 52607U 22052K   22143.83334491 -.00877661  00000-0 -66585-2 0  9997,2 52607  53.2177  35.0916 0000993 100.9912 287.1677 15.74134346  1809,6725.233,91.479,347.765,346.43,0.0
52607.0,STARLINK-3947,PAYLOAD,2022-05-23 22:00:01,15.73952211,0.0001103,53.2174,34.6792,89.33200000000002,51.3842,-0.0062687,-0.00825061,0.0,0 STARLINK-3947,1 52607U 22052K   22143.91668981 -.00825061  00000-0 -62687-2 0  9996,2 52607  53.2174  34.6792 0001103  89.3320  51.3842 15.73952211  1308,6725.751,91.489,348.358,346.875,0.0
52607.0,STARLINK-3947,PAYLOAD,2022-05-24 04:00:00,15.73315461,0.000114,53.2173,33.4417,123.756,354.0927,-0.0012247999999999,-0.0016992,0.0,0 STARLINK-3947,1 52607U 22052K   22144.16667824 -.00169920  00000-0 -12248-2 0  9992,2 52607  53.2173  33.4417 0001140 123.7560 354.0927 15.73315461  1855,6727.566,91.526,350.1980000000001,348.664,0.0
52607.0,STARLINK-3947,PAYLOAD,2022-05-24 12:00:00,15.73204332,0.0001143,53.2172,31.7903,113.3352,93.5054,8.021e-06,5.06e-06,0.0,0 STARLINK-3947,1 52607U 22052K   22144.50001157  .00000506  00000-0  80210-5 0  9990,2 52607  53.2172  31.7903 0001143 113.3352  93.5054 15.73204332  1908,6727.8830000000025,91.533,350.517,348.97900000000016,0.0
52607.0,STARLINK-3947,PAYLOAD,2022-05-24 14:00:01,15.73203793,0.0001193,53.2173,31.3773,115.5903,203.485,4.8449e-06,6e-07,0.0,0 STARLINK-3947,1 52607U 22052K   22144.58334491  .00000060  00000-0  48449-5 0  9991,2 52607  53.2173  31.3773 0001193 115.5903 203.4850 15.73203793  1301,6727.884,91.533,350.552,348.94699999999995,0.0
52607.0,STARLINK-3947,PAYLOAD,2022-05-24 22:00:00,15.73216017,6.890000000000001e-05,53.2147,29.7336,128.1692,279.7931,0.00028035,0.00038935,0.0,0 STARLINK-3947,1 52607U 22052K   22144.91667824  .00038935  00000-0  28035-3 0  9996,2 52607  53.2147  29.7336 0000689 128.1692 279.7931 15.73216017  1301,6727.85,91.532,350.17800000000005,349.251,0.0
52607.0,STARLINK-3947,PAYLOAD,2022-05-25 04:00:00,15.73220572,5.600000000000001e-05,53.2146,28.497,119.6276,265.0521,0.00072831,0.00102945,0.0,0 STARLINK-3947,1 52607U 22052K   22145.16667824  .00102945  00000-0  72831-3 0  9990,2 52607  53.2146  28.4970 0000560 119.6276 265.0521 15.73220572  2003,6727.837,91.532,350.07800000000015,349.325,0.0
52607.0,STARLINK-3947,PAYLOAD,2022-05-25 12:00:00,15.73266872,8.290000000000001e-05,53.2159,26.8436,130.3939,343.2842,-0.0001696,-0.0002442,0.0,0 STARLINK-3947,1 52607U 22052K   22145.50001157 -.00024420  00000-0 -16960-3 0  9993,2 52607  53.2159  26.8436 0000829 130.3939 343.2842 15.73266872  2064,6727.705,91.529,350.12699999999984,349.01199999999994,0.0
52607.0,STARLINK-3947,PAYLOAD,2022-05-25 14:00:01,15.73277109,9.52e-05,53.2159,26.4302,132.6296,93.3,-0.00050851,-0.00071613,0.0,0 STARLINK-3947,1 52607U 22052K   22145.58334491 -.00071613  00000-0 -50851-3 0  9994,2 52607  53.2159  26.4302 0000952 132.6296  93.3000 15.73277109  1300,6727.675,91.529,350.181,348.9,0.0
52607.0,STARLINK-3947,PAYLOAD,2022-05-25 20:00:01,15.73345523,0.0001062,53.217,25.1923,119.4352,83.2697,-0.0046389,-0.00610265,0.0,0 STARLINK-3947,1 52607U 22052K   22145.83334491 -.00610265  00000-0 -46389-2 0  9994,2 52607  53.2170  25.1923 0001062 119.4352  83.2697 15.73345523  2113,6727.48,91.525,350.06,348.631,0.0
52607.0,STARLINK-3947,PAYLOAD,2022-05-25 20:40:00,15.73282646,0.0001095999999999,53.216,25.0594,135.6255,224.4854,0.00017351,0.00023886,0.0,0 STARLINK-3947,1 52607U 22052K   22145.86112079  .00023886  00000-0  17351-3 0  9996,2 52607  53.2160  25.0594 0001096 135.6255 224.4854 15.73282646  1742,6727.66,91.528,350.26199999999994,348.787,0.0
52607.0,STARLINK-3947,PAYLOAD,2022-05-26 04:00:00,15.73088662,0.0001334,53.2172,23.5415,135.2049,156.2935,-0.006454,-0.00818939,0.0,0 STARLINK-3947,1 52607U 22052K   22146.16667824 -.00818939  00000-0 -64540-2 0  9997,2 52607  53.2172  23.5415 0001334 135.2049 156.2935 15.73088662  2163,6728.2130000000025,91.54,350.975,349.18,0.0
52607.0,STARLINK-3947,PAYLOAD,2022-05-26 08:51:58,15.72983949,0.0005099,53.216,22.5438,78.3311,281.8281,-0.00054216,-0.00075405,0.0,0 STARLINK-3947,1 52607U 22052K   22146.36942932 -.00075405  00000-0 -54216-3 0  9998,2 52607  53.2160  22.5438 0005099  78.3311 281.8281 15.72983949  1827,6728.511,91.546,353.807,346.945,0.0
52607.0,STARLINK-3947,PAYLOAD,2022-05-26 20:00:01,15.71901312,0.0001071,53.2173,20.2407,88.4803,19.178,-0.0068944,-0.00830147,0.0,0 STARLINK-3947,1 52607U 22052K   22146.83334491 -.00830147  00000-0 -68944-2 0  9999,2 52607  53.2173  20.2407 0001071  88.4803  19.1780 15.71901312  2275,6731.6,91.609,354.186,352.744,0.0
52607.0,STARLINK-3947,PAYLOAD,2022-05-26 22:00:00,15.71752189,0.0001226,53.2173,19.8291,92.1033,127.3732,-0.0069438999999999,-0.00830788,0.0,0 STARLINK-3947,1 52607U 22052K   22146.91667824 -.00830788  00000-0 -69439-2 0  9998,2 52607  53.2173  19.8291 0001226  92.1033 127.3732 15.71752189  1307,6732.026,91.617,354.716,353.066,0.0
52607.0,STARLINK-3947,PAYLOAD,2022-05-27 00:07:21,15.71965342,0.0001607,53.216,19.4026,46.2655,313.8497,-0.0018812,-0.00243956,0.0,0 STARLINK-3947,1 52607U 22052K   22147.00511143 -.00243956  00000-0 -18812-2 0  9995,2 52607  53.2160  19.4026 0001607  46.2655 313.8497 15.71965342  2294,6731.418000000002,91.605,354.36400000000015,352.201,0.0
52607.0,STARLINK-3947,PAYLOAD,2022-05-27 12:00:00,15.70707006,0.0001223,53.2173,16.9454,118.1241,162.827,-0.0072356,-0.00828385,0.0,0 STARLINK-3947,1 52607U 22052K   22147.50001157 -.00828385  00000-0 -72356-2 0  9997,2 52607  53.2173  16.9454 0001223 118.1241 162.8270 15.70707006  2379,6735.012,91.678,357.701,356.05400000000014,0.0
52607.0,STARLINK-3947,PAYLOAD,2022-05-27 14:00:01,15.70557797,0.0001095,53.2174,16.5339,116.1702,276.2409,-0.0072857,-0.00828806,0.0,0 STARLINK-3947,1 52607U 22052K   22147.58334491 -.00828806  00000-0 -72857-2 0  9999,2 52607  53.2174  16.5339 0001095 116.1702 276.2409 15.70557797  1301,6735.439,91.687,358.041,356.566,0.0
52607.0,STARLINK-3947,PAYLOAD,2022-05-27 19:58:20,15.708663,0.0005853,53.216,15.3244,190.2646,169.8255,-3.4604e-05,-5.007e-05,0.0,0 STARLINK-3947,1 52607U 22052K   22147.83218413 -.00005007  00000-0 -34604-4 0  9992,2 52607  53.2160  15.3244 0005853 190.2646 169.8255 15.70866300  2427,6734.557,91.669,360.364,352.48,0.0
52607.0,STARLINK-3947,PAYLOAD,2022-05-27 21:29:57,15.705012,0.0001833,53.2158,15.0099,65.3455,294.7754,-0.0037121,-0.00441613,0.0,0 STARLINK-3947,1 52607U 22052K   22147.89580289 -.00441613  00000-0 -37121-2 0  9993,2 52607  53.2158  15.0099 0001833  65.3455 294.7754 15.70501200  2060,6735.601,91.69,358.7,356.231,0.0
52607.0,STARLINK-3947,PAYLOAD,2022-05-28 04:00:00,15.69515122,0.000115,53.2172,13.659,114.6955,336.6774,-0.0076271,-0.00830351,0.0,0 STARLINK-3947,1 52607U 22052K   22148.16667824 -.00830351  00000-0 -76271-2 0  9995,2 52607  53.2172  13.6590 0001150 114.6955 336.6774 15.69515122  2481,6738.420999999999,91.748,361.061,359.51199999999994,0.0
52607.0,STARLINK-3947,PAYLOAD,2022-05-28 14:00:01,15.68768207,0.0001188,53.2175,11.605,107.4592,178.9733,-0.0078518,-0.00828808,0.0,0 STARLINK-3947,1 52607U 22052K   22148.58334491 -.00828808  00000-0 -78518-2 0  9992,2 52607  53.2175  11.6050 0001188 107.4592 178.9733 15.68768207  1306,6740.56,91.792,363.226,361.624,0.0
